QIANFAN-81              
1 63167U 25046J   25230.57876235  .00000137  00000+0  19257-3 0  9992
2 63167  88.9864 331.8501 0016750  98.5000 261.8050 13.50965012 31806
QIANFAN-82              
1 63168U 25046K   25230.83377002  .00000147  00000+0  20880-3 0  9995
2 63168  88.9864 331.8675 0014945 104.9423 255.3384 13.50962064 31828
QIANFAN-83              
1 63169U 25046L   25230.84024929  .00000174  00000+0  20947-3 0  9998
2 63169  88.9864 331.8702 0016196  97.3939 262.9060 13.61937385 31833
QIANFAN-84              
1 63170U 25046M   25230.86255373  .00000152  00000+0  21659-3 0  9998
2 63170  88.9864 331.9976 0017886 101.4597 258.8564 13.50969430 31751
QIANFAN-85              
1 63171U 25046N   25230.56230587  .00000140  00000+0  19726-3 0  9995
2 63171  88.9864 331.9006 0015277 104.6690 255.6156 13.50962947 31788
QIANFAN-86              
1 63172U 25046P   25230.57052852  .00000148  00000+0  21008-3 0  9998
2 63172  88.9866 331.7592 0013177 108.4762 251.7822 13.50963405 31864
QIANFAN-87              
1 63173U 25046Q   25230.83791091  .00000147  00000+0  20957-3 0  9994
2 63173  88.9862 331.8478 0013876 103.3915 256.8784 13.50960166 31836
QIANFAN-88              
1 63174U 25046R   25230.55822765  .00000135  00000+0  19028-3 0  9991
2 63174  88.9864 331.8282 0014268 110.9393 249.3286 13.50967424 31829
